[Satellite]
VERSION=1.1
NAME=YAOGAN 7
NICKNAME=YAOGAN 7
TLE1=1 36110U 09069A   17186.23451584 -.00000503  00000-0 -66368-4 0  9993
TLE2=2 36110  98.2157 345.3482 0025579  57.5318 302.8353 14.75066555407550
